HELIOS 1B               
1 25977U 99064A   26076.17950053  .00001563  00000+0  17785-3 0  9994
2 25977  98.1688 338.6427 0002294  64.3759 295.7694 14.87728743686379
TERRA                   
1 25994U 99068A   26076.25025964  .00000410  00000+0  92667-4 0  9993
2 25994  97.9577 129.3956 0003145 135.0358 294.1133 14.61022899396180
SL-16 R/B               
1 26070U 00006B   26076.28956105 -.00000180  00000+0 -67137-4 0  9996
2 26070  71.0003  81.8558 0016347 178.4892 181.6284 14.15824068349637
TITAN 4B R/B            
1 26474U 00047B   26076.24975240  .00003562  00000+0  22536-3 0  9994
2 26474  67.9911  19.2500 0038842  26.4029 333.9088 15.09639236394052
ENVISAT                 
1 27386U 02009A   26076.11162453  .00000098  00000+0  45616-4 0  9993
2 27386  98.3739  29.5327 0001302  82.5907 288.0457 14.39039634260242
IDEFIX & ARIANE 42P R/B 
1 27422U 02021B   26076.11712513  .00000243  00000+0  10877-3 0  9998
2 27422  98.5877  14.6349 0012015 160.2911 199.8738 14.31031330245082
AQUA                    
1 27424U 02022A   26076.28986706  .00000935  00000+0  19638-3 0  9998
2 27424  98.4187  43.7939 0000685 107.5024 357.8777 14.61995279269847
CZ-4B R/B               
1 27432U 02024C   26076.14559117  .00000032  00000+0  39643-4 0  9993
2 27432  98.8822 129.5141 0050117   3.1185  55.9720 14.14548891230291
MIDORI II (ADEOS-II)    
1 27597U 02056A   26076.15418820  .00000267  00000+0  12289-3 0  9992
2 27597  98.7780  34.6839 0001306  34.0017 326.1248 14.29290925211361
H-2A R/B                
1 27601U 02056E   26076.16487045  .00000221  00000+0  91635-4 0  9997
2 27601  98.3215  36.2464 0070924 138.5664 232.7909 14.33765609215189
CZ-4B R/B               
1 28059U 03049C   26076.22304171  .00000325  00000+0  86074-4 0  9999
2 28059  98.6884  71.4238 0047585 207.5087 152.3590 14.55027319187695
CZ-2C R/B               
1 28222U 04012C   26076.15413880  .00043829  00000+0  43724-3 0  9992
2 28222  97.7217 142.1581 0012937 278.7323  81.2470 15.65432625205443
SL-16 R/B               
1 28353U 04021B   26076.09397170 -.00000273  00000+0 -11723-3 0  9995
2 28353  70.9997 216.9533 0004444 359.7231   0.3888 14.14594825123881
CZ-4B R/B               
1 28415U 04035C   26076.10744857  .00006478  00000+0  22824-3 0  9994
2 28415  97.3489 110.2614 0030274 304.0396  55.7971 15.29198366181046
CZ-2C R/B               
1 28480U 04046B   26076.19862772  .00000123  00000+0  60184-4 0  9997
2 28480  98.1981 350.7150 0140293 132.3349 228.9818 14.26994751109573
ARIANE 5 R/B            
1 28499U 04049H   26076.17786469  .00000713  00000+0  85250-4 0  9992
2 28499  98.2639 244.9158 0083412 327.5301  32.0797 14.85279591146902
CZ-2D R/B               
1 28738U 05024B   26076.01955734  .00038065  00000+0  45628-3 0  9993
2 28738  97.3588  91.4380 0004583  26.9008 333.2486 15.60834466140928
